CORAL                   
1 67684U 98067YA  26089.82887985  .00109875  00000+0  14198-2 0  9995
2 67684  51.6298 325.8207 0012969 252.5653 107.3922 15.58003603  8087
GXIBA-1                 
1 67685U 98067YB  26089.89164020  .00054865  00000+0  82607-3 0  9990
2 67685  51.6321 326.2399 0012133 259.8057 100.1566 15.54190577  8081
UITMSAT-2               
1 67686U 98067YC  26089.93999752  .00071300  00000+0  10317-2 0  9995
2 67686  51.6315 325.8152 0009272 232.6700 127.3447 15.55198748  8090
HMU-SAT2                
1 67687U 98067YD  26089.89690831  .00053234  00000+0  81069-3 0  9996
2 67687  51.6323 326.2781 0008659 235.3349 124.6826 15.53931640  8006
LEOPARD                 
1 67688U 98067YE  26089.94726755  .00064267  00000+0  94733-3 0  9998
2 67688  51.6318 325.8641 0008929 232.9146 127.1029 15.54742267  8019
CREW DRAGON 12          
1 67796U 26031A   26089.93951280  .00011955  00000+0  22734-3 0  9990
2 67796  51.6341 327.3071 0006212 253.0090 107.0218 15.48666868559589
PROGRESS-MS 33          
1 68319U 26058A   26089.93951280  .00011955  00000+0  22734-3 0  9991
2 68319  51.6341 327.3071 0006212 253.0090 107.0218 15.48666868   706
