CCSDS_OMM_VERS = 2.0
CREATION_DATE  = 
ORIGINATOR     = 

OBJECT_NAME    = CORAL
OBJECT_ID      = 1998-067YA
CENTER_NAME    = EARTH
REF_FRAME      = TEME
TIME_SYSTEM    = UTC
MEAN_ELEMENT_THEORY = SGP/SGP4

EPOCH          = 2026-03-30T19:53:35.219040
MEAN_MOTION    = 15.58003603
ECCENTRICITY   = .00129697
INCLINATION    = 51.6298
RA_OF_ASC_NODE = 325.8207
ARG_OF_PERICENTER = 252.5653
MEAN_ANOMALY   = 107.3922

EPHEMERIS_TYPE = 0
CLASSIFICATION_TYPE = U
NORAD_CAT_ID   = 67684
ELEMENT_SET_NO = 999
REV_AT_EPOCH   = 808
BSTAR          = .14197838E-2
MEAN_MOTION_DOT = .109875E-2
MEAN_MOTION_DDOT = 0

CCSDS_OMM_VERS = 2.0
CREATION_DATE  = 
ORIGINATOR     = 

OBJECT_NAME    = GXIBA-1
OBJECT_ID      = 1998-067YB
CENTER_NAME    = EARTH
REF_FRAME      = TEME
TIME_SYSTEM    = UTC
MEAN_ELEMENT_THEORY = SGP/SGP4

EPOCH          = 2026-03-30T21:23:57.713280
MEAN_MOTION    = 15.54190577
ECCENTRICITY   = .00121336
INCLINATION    = 51.6321
RA_OF_ASC_NODE = 326.2399
ARG_OF_PERICENTER = 259.8057
MEAN_ANOMALY   = 100.1566

EPHEMERIS_TYPE = 0
CLASSIFICATION_TYPE = U
NORAD_CAT_ID   = 67685
ELEMENT_SET_NO = 999
REV_AT_EPOCH   = 808
BSTAR          = .82606544E-3
MEAN_MOTION_DOT = .54865E-3
MEAN_MOTION_DDOT = 0

CCSDS_OMM_VERS = 2.0
CREATION_DATE  = 
ORIGINATOR     = 

OBJECT_NAME    = UITMSAT-2
OBJECT_ID      = 1998-067YC
CENTER_NAME    = EARTH
REF_FRAME      = TEME
TIME_SYSTEM    = UTC
MEAN_ELEMENT_THEORY = SGP/SGP4

EPOCH          = 2026-03-30T22:33:35.785728
MEAN_MOTION    = 15.55198748
ECCENTRICITY   = .00092725
INCLINATION    = 51.6315
RA_OF_ASC_NODE = 325.8152
ARG_OF_PERICENTER = 232.6700
MEAN_ANOMALY   = 127.3447

EPHEMERIS_TYPE = 0
CLASSIFICATION_TYPE = U
NORAD_CAT_ID   = 67686
ELEMENT_SET_NO = 999
REV_AT_EPOCH   = 809
BSTAR          = .10317472E-2
MEAN_MOTION_DOT = .713E-3
MEAN_MOTION_DDOT = 0

CCSDS_OMM_VERS = 2.0
CREATION_DATE  = 
ORIGINATOR     = 

OBJECT_NAME    = HMU-SAT2
OBJECT_ID      = 1998-067YD
CENTER_NAME    = EARTH
REF_FRAME      = TEME
TIME_SYSTEM    = UTC
MEAN_ELEMENT_THEORY = SGP/SGP4

EPOCH          = 2026-03-30T21:31:32.877984
MEAN_MOTION    = 15.53931640
ECCENTRICITY   = .00086591
INCLINATION    = 51.6323
RA_OF_ASC_NODE = 326.2781
ARG_OF_PERICENTER = 235.3349
MEAN_ANOMALY   = 124.6826

EPHEMERIS_TYPE = 0
CLASSIFICATION_TYPE = U
NORAD_CAT_ID   = 67687
ELEMENT_SET_NO = 999
REV_AT_EPOCH   = 800
BSTAR          = .81068887E-3
MEAN_MOTION_DOT = .53234E-3
MEAN_MOTION_DDOT = 0

CCSDS_OMM_VERS = 2.0
CREATION_DATE  = 
ORIGINATOR     = 

OBJECT_NAME    = LEOPARD
OBJECT_ID      = 1998-067YE
CENTER_NAME    = EARTH
REF_FRAME      = TEME
TIME_SYSTEM    = UTC
MEAN_ELEMENT_THEORY = SGP/SGP4

EPOCH          = 2026-03-30T22:44:03.916320
MEAN_MOTION    = 15.54742267
ECCENTRICITY   = .00089296
INCLINATION    = 51.6318
RA_OF_ASC_NODE = 325.8641
ARG_OF_PERICENTER = 232.9146
MEAN_ANOMALY   = 127.1029

EPHEMERIS_TYPE = 0
CLASSIFICATION_TYPE = U
NORAD_CAT_ID   = 67688
ELEMENT_SET_NO = 999
REV_AT_EPOCH   = 801
BSTAR          = .94733146E-3
MEAN_MOTION_DOT = .64267E-3
MEAN_MOTION_DDOT = 0

CCSDS_OMM_VERS = 2.0
CREATION_DATE  = 
ORIGINATOR     = 

OBJECT_NAME    = CREW DRAGON 12
OBJECT_ID      = 2026-031A
CENTER_NAME    = EARTH
REF_FRAME      = TEME
TIME_SYSTEM    = UTC
MEAN_ELEMENT_THEORY = SGP/SGP4

EPOCH          = 2026-03-30T22:32:53.905920
MEAN_MOTION    = 15.48666868
ECCENTRICITY   = .00062127
INCLINATION    = 51.6341
RA_OF_ASC_NODE = 327.3071
ARG_OF_PERICENTER = 253.0090
MEAN_ANOMALY   = 107.0218

EPHEMERIS_TYPE = 0
CLASSIFICATION_TYPE = U
NORAD_CAT_ID   = 67796
ELEMENT_SET_NO = 999
REV_AT_EPOCH   = 55958
BSTAR          = .22734022E-3
MEAN_MOTION_DOT = .11955E-3
MEAN_MOTION_DDOT = 0

CCSDS_OMM_VERS = 2.0
CREATION_DATE  = 
ORIGINATOR     = 

OBJECT_NAME    = PROGRESS-MS 33
OBJECT_ID      = 2026-058A
CENTER_NAME    = EARTH
REF_FRAME      = TEME
TIME_SYSTEM    = UTC
MEAN_ELEMENT_THEORY = SGP/SGP4

EPOCH          = 2026-03-30T22:32:53.905920
MEAN_MOTION    = 15.48666868
ECCENTRICITY   = .00062127
INCLINATION    = 51.6341
RA_OF_ASC_NODE = 327.3071
ARG_OF_PERICENTER = 253.0090
MEAN_ANOMALY   = 107.0218

EPHEMERIS_TYPE = 0
CLASSIFICATION_TYPE = U
NORAD_CAT_ID   = 68319
ELEMENT_SET_NO = 999
REV_AT_EPOCH   = 70
BSTAR          = .22734022E-3
MEAN_MOTION_DOT = .11955E-3
MEAN_MOTION_DDOT = 0

